Name,PhysicalAddress,PostalAddress,Email,Phone,Administration Manager,Principal,Location,Directorate
Batchelor Area School,"71 Kirra Cres, Batchelor, 0845, NT","c/-, Batchelor Post Office, 0845, NT",batchelor.as@education.nt.gov.au,(08) 8976 0077,Carolyn Bilston,Neil Gibson,"131.033019,-13.046103",North 
Anula Primary School,"73 Yanyula Dr, Anula, 0812, NT","Yanyula Drive, ANULA, 0812, NT",anula.admin@education.nt.gov.au,(08) 899 77500,Kylie Robinson,Melinda Kealy,"130.89369,-12.39162",North 
Angurugu School,"N/A, Angurugu, NT","PO Box 40, Alyangula, Groote Eylandt, 0885, NT",admin.angurcec@education.nt.gov.au,(08) 8987 6355,Kaye Hood,Yasmin Steel,"136.45933,-13.98253",North
Australian International Islamic College,"25 Bowerlee Road, Berrimah NT 0828, NT","25 Bowerlee Road, Berrimah, 0828, NT",nt.admin@aiic.nt.edu.au,n/a,,Andrew Taylor,"130.91780,-12.41755",n/a
Areyonga School,"wsw of Hermannsburg, 224km from Alice Springs, Areyonga, NT","Areyonga, via Alice Springs, 0872, NT",areyonga.school@education.nt.gov.au,(08) 8956 7303,Therese Townsend,Toby Brown,"132.27011,-24.0737",Central Australia
Barunga School,"N/A, Barunga  (Bamyili), NT","PMB 117, via Katherine, 0851, NT",office.barunga@education.nt.gov.au,(08) 8975 4502,Katrin Woolgar,Malcolm Hales,"132.86603,-14.52456",North
Ampilatwatja School,"N/A, Ampilatwatja (Ammaroo), NT",", PMB 84, Alice Springs, 0872, NT",ann.adams@education.nt.gov.au,(08) 8956 9265,Therese Townsend,Ann Adams,"135.22478,-21.65369",Central Australia
Amanbidji School,"N/A, Amanbidgi (Kildirk), NT","PMB 16, via Katherine, 0851, NT",Carolyn.tucker@education.nt.gov.au,(08) 9168 7380,Keely Wallace,Carolyn Tucker,"129.617986,-16.427522",North
Alyarrmandumanja Umbakumba School,"N/A, Umbakumba, NT","PO Box 698, Alyangula, 0885, NT",admin.umbakumba@education.nt.gov.au,(08) 8987 6793,Donna Cartwright,David Oke,"136.81193,-13.85975",North
Amoonguna School,"N/A, Amoonguna, NT","PO Box  2529,, Alice Springs, 0871, NT",cherie.gibbens@education.nt.gov.au,(08) 8952 3402,Stephen Go,Cherie Gibbens,"133.938539,-23.767906",Central Australia
Alyangula Area School,"Cnr Flinders St & Ayawarra Cr, Alyangula, NT","PMB 3, Alyangula, Groote Eylandt, 0885, NT",alyangula.admin@education.nt.gov.au,(08) 8987 6366,,Bert Beekhuizen,"136.42011,-13.84964",North
Zuccoli Primary School,"130 Zuccoli Parade, Zuccoli, 0830, NT","PO Box 2222, PALMERSTON, 0832, NT",ZuccoliPrimary@ntschools.net,(08) 792 30222,,Carolyn Edwards,"tba,tba",North
Alpurrurulam School,"N/A, Alpurrurulam (Lake Nash), NT","PMB 46, Mt Isa, 4825, QLD",gavin.khan@education.nt.gov.au,(07) 4748 4887,Maree Hayes,Gavin Khan,"137.84839,-20.98775",Central Australia
Yulara School,"21 Winmati St, Yulara, 0872, NT","PO Box 146, Yulara, 0872, NT",yulara.school@education.nt.gov.au,(08) 8956 2014,,Catherine Ashton,"130.98364,-25.23514",Central Australia
Yuendumu School,"Conniston Rd, Yuendumu, NT","C/ - Post Office, Yuendumu, 0870, NT",finance.yuendumu@education.nt.gov.au,(08) 8956 4011,Go Stephen,Kim Omar,"131.769889,-22.25565",Central Australia
Yipirinya School,"Lovegrove Dr, Alice Springs, NT","C/- Yipirinya School Council Inc, PO Box 2363, Alice Springs, 0871, NT",yipirinya@yipirinya.com.au,(08) 8952 5633,,Gavin Morris,"133.8581,-23.69766",Alice Springs
Baniyala Garrangali School,"Yilpara Community, Yirrkala, 0880, NT","PO Box 1496, NHULUNBUY, 0881, NT",kirsten.morey@education.nt.gov.au,(08) 8987 9114,Donna Cartwright,Kirsten Morey,"136.2261,-13.2004",North 
Arlparra School,", Arlparra Community, Utopia, NT","PMB 18, via ALICE SPRINGS, 0872, NT",stephen.nimmo@education.nt.gov.au,(08) 8956 9178,Di Dowling,Stephen Nimmo,"134.771859,-22.084073",Central Australia
Yirrkala School,"Rankine Road, Yirrkala, NT","PO Box 896, Nhulunbuy, 0881, NT",admin.yirrkala@ntschools.net,(08) 898 71988,,,"136.89452,-12.25189",North
Bakewell Primary School,"1 Forrest Parade, Bakewell, 0832, NT","PO Box 1300, PALMERSTON, 0831, NT",admin.bakewell@education.nt.gov.au,(08) 899 77400,,,"130.99373,-12.49362",North 
Yirara College,"470 South Stuart Highway, Alice Springs, NT","PMB 51, Alice Springs, 0871, NT",info@yirara.nt.edu.au,(08) 8950 5644,,Chris England,"133.868978,-23.762231",Alice Springs
Yarralin School,"N/A, Yarralin, NT","PMB 34, via Katherine, 0851, NT",zoe.richardson@education.nt.gov.au,(08) 8975 0809,Keely Wallace,Zoe Richardson,"130.88179,-16.44684",North
Woodroffe Primary School,"55 Woodroffe Ave, Woodroffe, 0830, NT","PO Box 2021, PALMERSTON, 0831, NT",woodroffe.ps@education.nt.gov.au,(08) 898 37600,Sharon Challen,Miranda Watt,"130.98241,-12.50617",North
Wulagi Primary School,"24 Brolga St, Wulagi, 0812, NT","24 Brolga St, WULAGI, 0812, NT",wulagi.primary@education.nt.gov.au,(08) 898 37800,,Ramon Dixon,"130.89537,-12.38335",North
Wugularr School,"Laiwanga St, Wugularr, NT","PMB 6, Katherine, 0851, NT",admin.wugulsch@education.nt.gov.au,(08) 8975 4529,Katrin Woolgar,Stephen Hill,"133.118,-14.5614",North
Woolaning School,"Litchfield Park Rd, Litchfield Park, NT","PO Box 3261, Palmerston, 0831, NT",admin.woolasch@education.nt.gov.au,(08) 8978 2334,Geraldine Hogarth,Cheryl Glasgow,"130.654431,-13.098819",North
Woolianna School,"Wooliana Rd, Daly River, NT","PMB 194, Winnellie, 0821, NT",woolianna.school@education.nt.gov.au,(08) 8978 2984,Donna Cartwright,Sarah Rowe,"130.681,-13.7109",North
Willowra School,"N/A, Willowra, NT","PMB 102, via Alice Springs, 0872, NT",willowra.school@education.nt.gov.au,(08) 8956 8408,Bob Babu,Barb Wilson,"132.616106,-21.244506",Central Australia
Watiyawanu School,"N/A, Mt Liebig, NT","PMB 111, via Alice Springs, 0872, NT",l.kenny@education.nt.gov.au,(08) 8956 8555,Alexa Sutton,Larry Kenny,"131.274489,-23.266169",Central Australia
Walungurru School,"N/A, Walungurru (Kintore), NT","PMB 14, via Alice Springs, 0872, NT",walungurru.school@education.nt.gov.au,(08)  8964 6056,Alexa Sutton,Darren Brampton,"129.38771,-23.27712",Central Australia
Warruwi School,"N/A, Warruwi (Goulburn Island), 0822, NT","PMB 90, via WINNELLIE, 0821, NT",samuel.robinson@education.nt.gov.au,(08) 8979 0222,Kylie Davis,Samuel Robinson,"133.38947,-11.64742",North
Wanguri Primary School,"46 Gsell St, Wanguri, 0810, NT","PO Box 40519, CASUARINA, 0811, NT",wanguri.prim@education.nt.gov.au,(08) 8927 1655,Robyn Nowland,Tim Morgan,"130.88711,-12.37129",North
Wallace Rockhole School,"N/A, Wallace Rockhole, NT","PO Box 2256, Alice Springs, 0871, NT",wallace.rockhole@education.nt.gov.au,(08) 8956 7330,Gesheila Cortez,Maryse Turenne,"133.085237,-24.1233",Central Australia
Watarrka School,"n/a, Lilla Community, NT","Education Stores, Shed 9, 66A Smith St, Alice Springs, 0870, NT",tba,(08) 8956 7758,Rowan Churches,tba tba,"132.3747,-24.30093",Central Australia
Wagaman Primary School,"35 Wagaman Tce, Wagaman, 0810, NT","PO Box 40019, CASUARINA, 0811, NT",wagaman.school@education.nt.gov.au,(08) 8922 6011,Darnette Navidad,Mandy McKinnon,"130.88474,-12.37957",North
Urapunga School,"Blyth St, Rittarangu (Urapunga), NT","PMB 12, via Katherine, 0852, NT",craig.watkins@education.nt.gov.au,(08) 8975 4645,Kelsey Yanong,Craig Watkins,"134.564289,-14.710481",North
Titjikala School,"N/A, Titjikala (Maryvale), NT","PMB 130, via Alice Springs, 0872, NT",joanne.wickham@education.nt.gov.au,(08) 8956 0927,Lufen Cowham,Joanne Wickham,"134.07331,-24.67244",Central Australia
Timber Creek School,"62 Wilson St, Timber Creek, NT","PMB 115, via Katherine, 0851, NT",timbercreek.admin@education.nt.gov.au,(08) 8975 0714,Keely Wallace,Merryn Curley,"130.46513,-15.6481",North
Top End School of Flexible Learning,"1 Malak Place, Malak, 0812, NT","PO Box 703, Karama, 0812, NT",malakrc.det@education.nt.gov.au,(08) 899 77199,,,"130.9034569,-12.3959475",North
Tiwi College,"Pickertaramoor Melville Island, , NT","LMB 127, Winnellie, 0822, NT",tiwi.college@ntschools.net,08 89709024,,Thelma Parker,"130.88972,-11.76667",Non Government
Tipperary Station School,"Daly River Road, Tipperary, NT","PMB 214, via Winnellie, 0822, NT",rosemary.sullivan@education.nt.gov.au,(08) 8978 2765,Carmel Pedersen,Rosemary Sullivan,"131.04168,-13.73335",North
Ti Tree School,"26 Palmer St, Ti-Tree, NT","Locked Bag 257,, Ti Tree, via Alice Springs, 0872, NT",ciaran.bailie@education.nt.gov.au,(08) 8956 9743,Bob Babu,Ciaran Baillie,"133.41976,-22.12793",Central Australia
Tennant Creek Primary School,"31 Paterson St, Tennant Creek, 0860, NT","PO Box 506, Tennant Creek, 0861, NT",admin.tennasch@education.nt.gov.au,(08) 896 32424,Rowena Verdillo,Katrina Georgiou,"134.18925,-19.6501",Central Australia
Stuart Park Primary School,"8 Nudl St, Stuart Park, 0820, NT","PO Box 37421, Winnellie, 0831, NT",stuartpark.school@education.nt.gov.au,(08) 899 77333,Bill Grealy,Danielle Hall,"130.8451,-12.44091",North
Stirling School,"N/A, Wilora (Stirling Station) 0872, NT","Stirling Station, via Alice Springs, 0872, NT",lisa.donoghue@education.nt.gov.au,(08) 8956 9759,Bob Babu,Lisa Donoghue,"133.73247,-21.73983",Central Australia
Tennant Creek High School,"38 Stuart St, Tennant Creek, NT","PO Box 546, Tennant Creek, 0861, NT",admin.tchs@education.nt.gov.au,(08) 8962 2102,,Cheryl Dwyer,"134.196942,-19.644142",Central Australia
St Philip's College,"2 Ulpaya Rd, Alice Springs, NT","PO Box 33, Alice Springs, 0871, NT",info@stphilips.nt.edu.au,(08) 8950 4511,,Roger Herbert,"133.8839,-23.68982",Alice Springs
St Mary's Catholic School,"3 Lindsay St, Darwin City, NT","PO Box 2413, Darwin, 0801, NT",admin.stmarys@nt.catholic.edu.au,(08) 8981 9796,,Rosie Harrison,"130.83883,-12.45935",Darwin
Taminmin College,"70 Challoner Cct, Humpty Doo, NT","PO Box 21, HUMPTY DOO, 0836, NT",admin.taminmin@education.nt.gov.au,(08) 898 37000,Mary Rose Henry,Sue Healy,"131.10089,-12.58037",North
Shepherdson College,"Wakirana St, Galiwinku, 0822, NT","PMB 74, via WINELLIE, 0822, NT",principal.shepherdson@education.nt.gov.au,(08) 8987 9044,Georgia Smith,Joe Hewett,"135.56757,-12.02856",North
Sanderson Middle School,"60 Matthews Rd, Malak, 0812, NT","PO Box 189, SANDERSON, 0813, NT",sanderson.middle@education.nt.gov.au,(08) 8927 8899,Donna Cartwright,Robert McIntosh,"130.89878,-12.38821",North
Rockhampton Downs School,"Community ID 259, Wogyala, NT","PMB 34, Tennant Creek, 0862, NT",emily.hubbert@education.nt.gov.au,(08) 8964 4675,Heather Watson,Emily Hubbert,"135.179711,-19.007623",Central Australia
Rosebery Primary School,"Belyuen Road Rosebery, Rosebery, 0832, NT","PO Box 650, PALMERSTON, 0832, NT",roseberyps.admin@education.nt.gov.au,(08) 792 30100,Julie Branson,,"130.993714,-12.51111",North
Ross Park Primary School,"7 Winnecke Ave, Alice Springs, 0870, NT","PO Box 364, ALICE SPRINGS, 0871, NT",rosspark.school@ntschools.net,(08) 895 52000,Naomi Berriman,Salima Spring,"133.8919,-23.6936",Central Australia
School of Sport Education NT,"1 Nemarluk Drive, Ludmilla, NT, 0820, NT","PO Box 42896, Casuarina, 0811, NT",admin.ssnt@education.nt.gov.au,(08) 899 95700,Joanne Heydon,Randall Cook,"130.8536697,-12.4223633",North
Robinson River School,"N/A, Robinson River, NT","PMB 145, Katherine, 0851, NT",chris.errington@education.nt.gov.au,(08) 8975 9956,Madelyn Farrington,Chris Errington,"136.98143,-16.76047",North
Ramingining School,"N/A, Ramingining, 0822, NT","PMB 125, via WINNELLIE, 0821, NT",sue.mcavoy@education.nt.gov.au,(08) 8979 7924,,Sue McAvoy,"134.92619,-12.32641",North
Pularumpi School,"Pularumpi, Pirlangimpi, NT","PMB 51, via Winnellie, 0822, NT",roseanna.brunker@education.nt.gov.au,(08) 8978 3961,,Roseanna Brunker,"130.417,-11.4036",North
Pine Creek School,"N/A, Pine Creek, 0847, NT","PO Box 196, Pine Creek, 0847, NT",janet.purje@education.nt.gov.au,(08) 8976 1228,Yvette Williams,Janet Purje,"131.836,-13.8219",North
Peppimenarti School,"N/A, Peppimenarti, NT","PMB 49, via Winnellie, 0822, NT",jen.robson@education.nt.gov.au,(08) 8978 2455,Carmel Pedersen,Jen Robson,"130.077,-14.14978",North
Pigeon Hole School,"N/A, Pigeon Hole, NT","PMB 10, via Katherine, 0852, NT",john.leahy@education.nt.gov.au,(08) 8975 0812,Jordin Oehm,John Leahy,"131.22025,-16.81439",North
Parap Primary School,"52 Urquhart Street, Parap, 0820, NT","PO Box 69, PARAP, 0804, NT",parapps.office@education.nt.gov.au,(08) 898 22922,Debby Gribben,Kim Morgan,"130.84432,-12.42984",North
Papunya School,"N/A, Papunya, 0872, NT","PMB 77, via Alice Springs, 0872, NT",christine.munro@education.nt.gov.au,(08) 8956 8515 or (08) 8956 8323,Alexa Sutton,Christine Munro,"131.91031,-23.20283",Central Australia
Palmerston College,"10 Tilston Ave, Driver, 0830, NT","PO Box 8, PALMERSTON, , NT",Palmerston.college@education.nt.gov.au,(08) 899 77999,,Natalie Banks,"130.9715587,-12.4951243",North
OLSH College - Traeger Campus,"8 Traeger Ave, Alice Springs, NT","PO Box 2508, Alice Springs, 0871, NT",admin.olshalice@nt.catholic.edu.au,(08) 8950 6400,,Paul Melloy,"None,None",Alice Springs
OLSH Primary School,"5 Bath St, Alice Springs, NT","PO Box 2508, Alice Springs, 0871, NT",admin.olshalice@nt.catholic.edu.au,(08) 8950 6400,,Paul Melloy,"None,None",Alice Springs
OLSH College - Sadadeen Campus,"Sadadeen Rd, Alice Springs, NT","PO Box 2508, Alice Springs, 0871, NT",admin.olshalice@nt.catholic.edu.au,(08) 8950 6400,,Paul Melloy,"133.876402,-23.707784",Alice Springs
Ntaria School,"N/A, Hermannsburg (Ntaria), NT","PMB 4, via Alice Springs, 0872, NT",ntariasch.admin@education.nt.gov.au,(08) 8956 7424,Gesheila Cortez,Emma Langton,"132.77595,-23.94255",Central Australia
NT School of Distance Education,"The Bullocky Point Education Precinct, Atkins Dr, The Gardens, 0820, NT","PO Box 40471, Casuarina, 0811, NT",ntsde.admin@education.nt.gov.au,(08) 892 22292,Mikayla Chin,Anne White,"130.833951,-12.4393203",North
Nyirripi School,"N/A, Nyirripi, NT","PMB 125, via Alice Springs, 0872, NT",ken.millar@education.nt.gov.au,(08) 8956 8880,Rhyl Hall,Ken Millar,"130.55281,-22.64994",Central Australia
Numbulwar School,"N/A, Numbulwar, NT","PMB 68, WINELLIE, 0822, NT",lawry.mahon@education.nt.gov.au,(08) 8975 4650,Jodi-Anne Williamson,Lawry Mahon,"135.74119,-14.27811",North
NT Music School,"60 Matthews Rd, Wulagi 0812, NT","PO Box 455, Sanderson, 0813, NT",nt.musicschool@education.nt.gov.au,(08) 896 35550,Houdeh Khoie,Bill Grose,"130.8986114,-12.3881943",North
Nightcliff Middle School,"90 Aralia St, Rapid Creek, 0810, NT","90 Aralia St, NIGHTCLIFF, 0810, NT",admin.nightms@education.nt.gov.au,(08) 898 37677,Lyn Waugh,Eva Kokkinomagoulos,"130.85177,-12.3787",North
Nhulunbuy High School,"51 Matthew Flinders Way, Nhulunbuy, 0880, NT","PO Box 1096, NHULUNBUY, 0881, NT",nhulunbuy.high@education.nt.gov.au,(08) 898 70844,,David Lees,"136.78298,-12.18676",North
Nganmarriyanga School,"N/A, Palumpa, NT","PMB 85, via WINNELLIE, 0822, NT",tim.webb@education.nt.gov.au,(08) 8978 2380,,Tim Webb,"129.882,-14.3528",North
Ngukurr School,"Bawuda St, Ngukurr, 0852, NT","PMB 138, KATHERINE, 0851, NT",ngukurr.cec@education.nt.gov.au,(08) 8975 4680,Kelsey Yanong,Gavin Fraser,"134.73294,-14.7285",North
Nhulunbuy Primary School,"60 Chesterfield Cct, Nhulunbuy, 0880, NT","PO Box 321, NHULUNBUY, 0881, NT",nps.frontoffice@education.nt.gov.au,(08) 898 70022,Kylie Davis,Rachel Blundell,"136.7841,-12.1821",North
Newcastle Waters School,"11 Drovers Dr, Newcastle Waters, NT","Newcastle Waters Station, via Elliott, 0862, NT",rhianne.obst@education.nt.gov.au,(08) 8964 4566,Heather Watson,Rhianne Obst,"133.41007,-17.37253",Central Australia
Nganambala School,"n/a, Emu Point, NT","PMB 218, Via Winnellie, 0822, NT",samuel.sailor@education.nt.gov.au,(08) 8978 2001,Carmel Pedersen,Samuel Sailor,"130.32521,-14.1701",North
Neutral Junction School,"Stuart Hwy, Neutral Junction, NT","Neutral Junction, via Alice Springs, 0872, NT",ruth.rawnsley@education.nt.gov.au,(08) 8956 9754,Bob Babu,Ruth Rawnsley,"133.994783,-21.515756",Central Australia
Mutitjulu School,"Mutitjulu, Ayers Rock, NT","PO Box 121, Yulara, 0872, NT",mutitjulu.school@education.nt.gov.au,(08) 8956 2547,Rowan Churches,Trish Noy,"131.064,-25.3481",Central Australia
Nemarluk School,"30 Styles St, Alawa, 0810, NT","PO Box 39729, WINNELLIE, 0821, NT",admin.nemarluk@education.nt.gov.au,(08) 898 50400,Teri Nicol,Virg Hughes,"130.874505,-12.379467",North
Nakara Primary School,"35 Nakara Tce, Nakara, 0810, NT","35 Nakara Tce, Nakara, 0810, NT",nakara.primary@education.nt.gov.au,(08) 8927 9823,Lorraine Warnock,Liza Parr,"130.87776,-12.37014",North
Nightcliff Primary School,"17 Pandanus St, Nightcliff, 0810, NT","PO BOX 798, NIGHTCLIFF, 0810, NT",nightcliff.ps@education.nt.gov.au,(08) 8948 8488,Lisa Whistler,Jo Glennon,"130.84984,-12.38057",North
Murray Downs School,"Outstation, Murray Downs(Imangara), NT","PMB 48, Alice Springs, 0872, NT",natasha.hosny@education.nt.gov.au,(08) 8964 1951,Maree Hayes,Natasha Hosny,"134.67685,-21.0477",Central Australia
Moulden Primary School,"103 Bonson Tce, Moulden, 0830, NT","PO Box 80, PALMERSTON, 0831, NT",moulden.primary@education.nt.gov.au,(08) 8930 5900,,Ali Brady,"130.97113,-12.5065",North
Mulga Bore School,"n/a, Mulga Bore Community, NT","PMB 18, via Alice Springs, 0872, NT",pesala.brown@education.nt.gov.au,(08) 8956 9824,Therese Townsend,Pesala Brown,"134.2118,-22.452122",Central Australia
Minyerri School,"N/A, Minyerri (Hodgson Downs), NT","PMB 40, KATHERINE, 0851, NT",amy.dyke@education.nt.gov.au,(08) 8975 9972,Suzi White,Amy Dyke,"134.08281,-15.221225",North
Mount Allan School,"N/A, Yuelamu, NT","PMB  6, Mount Allan School via Alice Springs, 0872, NT",dowreen.lata@education.nt.gov.au,(08) 8956 8860,Lufen Cowham,Dowreen Lata,"132.2081,-22.2566",Central Australia
Mother Teresa Catholic Primary School,"Ginger St, Zuccoli, NT","PO Box 1125, Palmerston, 0830, ",principal.motherteresa@nt.catholic.edu.au,(08) 7969 5600,,Reuben Johnson,"None,None",
Moil Primary School,"37 Lanyon Tce, Moil, 0810, NT","37 Lanyon Tce, MOIL, 0810, NT",admin.moilsch@education.nt.gov.au,(08) 898 37530,Annisa McCormick,Cindi Bowyer,"130.88067,-12.38794",North
Mimik-Ga Centre,"4 Henbury Ave, Wanguri, 0810, NT","PO Box 40519, Casuarina, 0811, NT",admin.mimik-ga@education.nt.gov.au,(08) 898 37900,Flavia Wainwright,Mark Mangohig,"130.8836896,-12.3689445",North
Milkwood Steiner,"107 Boulter Road, Berrimah NT 0828, Marrara, NT","PO Box 319, Karama, 0812, NT",info@milkwood.nt.edu.au,08 8947 0608,,Netanela Mizrahi,"130.922305,-12.414473",Darwin
Milyakburra School,"N/A, Milyakburra (Bickerton Island), NT","PMB 5, Bickerton Island, via Winnellie, 0822, NT",alessa.fremmer@education.nt.gov.au,(08) 8987 6084,,Alessa Fremmer,"136.1956,-13.7818",North
Millner Primary School,"41 Sabine Rd, Millner, 0810, NT","41 Sabine Rd, MILLNER, 0810, NT",admin.millnerps@education.nt.gov.au,(08) 792 30333,Megan Moss,Jessica Goveas,"130.85947,-12.390722",North
Milikapiti School,"N/A, Milikapiti (Snake Bay), NT","PMB 96, via Winnellie, 0822, NT",chris.armstrong1@education.nt.gov.au,(08) 8978 3960,Bev McGregor,Chris Armstrong,"130.6711,-11.4194",North
Middle Point School,"615 Anzac Pde, Middle Point, NT","PO Box 96, Humpty Doo, 0836, NT",middle.pt@education.nt.gov.au,(08) 8988 1688,Donna Cartwright,Leigh McKenzie,"131.31486,-12.57599",North
Mbunghara School,"N/A, Mbunghara, NT","PMB 242, via Alice Springs, 0872, NT",mbunghara.school@education.nt.gov.au,(08) 8956 8503,Alexa Sutton,Phil Bartley,"132.35687,-23.29019",Central Australia
Milingimbi School,"N/A, Milingimbi, 0822, NT","PMB 54, Milingimbi, via WINNELLIE, 0822, NT",michael.jones@education.nt.gov.au,(08) 8987 9902,Paula Bailey,Michael Jones,"134.9201,-12.1021",North
Mataranka School,"Roper Terrace, Mataranka, 0852, NT","PO Box 4022, Mataranka, 0852, NT",telka.zotz@education.nt.gov.au,(08) 8975 4543,Jenny Carroll,Telka Zotz,"133.0651,-14.9219",North
Manyallaluk School,"N/A, Manyallaluk (Eva Valley), NT","PO Box 271, Katherine, 0851, Nt",admin.manyasch@education.nt.gov.au,(08) 8975 4438,Jordin Oehm,Ben Kleinig,"132.829,-14.2666",North
Mapuru Yirralka College,"Dhabulu Rd, Mapuru, NT 0822, NT","PMB 301, Winnellie, 0821, NT",debra.bateman@ntschools.net,(08) 8970 4996,,Debra Bateman,"135.4378,-12.2532",East Arnhem
Manunda Terrace Primary School,"31 Manunda Tce, Karama, 0812, NT","31 Manunda Tce, KARAMA, 0812, NT",manunda.school@education.nt.gov.au,(08) 899 77366,Lakshmi Vazhayil,Lisa Hirschausen,"130.91926,-12.40311",North
Mamaruni School,"N/A, Minjilang (Croker Is), NT","PMB 47, via Winnellie, 0822, NT",terri-lee.evans@education.nt.gov.au,(08) 8979 0255,Bev McGregor,Terri Lee Evans,"132.57775,-11.14856",North
Maningrida School,"N/A, Maningrida, 0822, NT","PMB 67, via WINNELLIE, 0822, NT",maningrida.cec@education.nt.gov.au,(08) 8979 5950,Dama Stride,Petrina Hayward,"134.22333,-12.05041",North
Malak Primary School,"45 Malak Cres, Malak, 0812, NT","45 Malak Crescent, MALAK, 0812, NT",admin.malak@education.nt.gov.au,(08) 899 77600,Rachel Clayton,Lorraine Evans,"130.90309,-12.39283",North
MacFarlane Primary School,"42 Grevillea Rd, Katherine East, 0850, NT","42 Grevillea Road, KATHERINE EAST, 0850, NT",admin.macfasch@education.nt.gov.au,(08) 896 51700,Lisa Alexander,Philip Russell,"132.28311,-14.4666",North
Living Waters Lutheran School,"Cnr Albrecht Dr & Kramer St, Alice Springs, NT","PO Box 8869, Alice Springs, 0871, NT",living.waters@ntschools.net,(08) 8950 0700,,Lisa Goldsworthy,"133.83155,-23.69766",Alice Springs
Ludmilla Primary School,"41 Bagot Rd, Ludmilla, 0820, NT","PO Box 39945, WINNELLIE, 0821, NT",admin.ludmilla@education.nt.gov.au,(08) 898 37888,Manager Admin,Carol Putica,"130.85556,-12.42534",North
Laynhapuy Homelands School,"Galpu Rd, Yirrkala, NT","PMB 747, Nhulunbuy, 0881, NT",yhs.admin@ntschools.net,(08) 898 71224,,Haidee Dentith,"136.888,-12.2528",North
Leanyer Primary School,"114 Leanyer Drive,, Leanyer, 0812, NT","114 Leanyer Drive, LEANYER, 0812, NT",admin.leanyer@education.nt.gov.au,(08) 8927 4022,Helen Savvas,Leah Crockford,"130.89933,-12.37515",North
Larrakeyah Primary School,"3 Packard St, Larrakeyah, 0820, NT","PO Box 412, DARWIN, 0801, NT",larrakeyah.admin@education.nt.gov.au,(08) 8981 3211,Rose Gerlach,Natasha Guse,"130.82965,-12.45787",North
Kiana School,"N/A, Kiana, NT","PMB 33, via Tennanat Creek, 0861, NT",tba,(08) 8975 9820,Suzi White,tba tba,"136.18325,-17.24244",North
Lajamanu School,"N/A, Lajamanu ( Hooker Ck), NT","PMB 63, via Katherine, 0851, NT",admin.lajamcec@education.nt.gov.au,(08) 8975 0946,Suzanne Keen,Karishma Kumar,"130.633981,-18.3353",North
Katherine School Of The Air,"101 Giles St, Katherine, 0850, NT","PO Box 531, KATHERINE, 0851, NT",kath.soa@education.nt.gov.au,(08) 896 51555,,Donna Bryant,"132.26948,-14.4502",North
Katherine High School,"Grevillea Rd, Katherine East, 0850, NT","PO Box 189, KATHERINE, 0851, NT",admin.kathehs@education.nt.gov.au,(08) 897 38200,Shayla Rice,Nick Lovering,"132.28306,-14.46347",North
Kintore Street School,"11 Kintore St, Katherine, 0872, NT","PO Box 1931, KATHERINE, 0851, NT",kintore.admin@education.nt.gov.au,(08) 8973 3888,Jodie Locke,Margaret Chamberlain,"132.25918,-14.46361",North
Katherine South Primary School,"Riverbank Dr, Katherine, 0850, NT","PO Box 721, KATHERINE, 0851, NT",admin.kathesch@education.nt.gov.au,(08) 8972 1277,Shayla Rice,Karen Taylor,"132.255,-14.4802",North
Karama Primary School,"37 Livistona Rd, Karama, 0812, NT","PO Box 103, Karama, 0813, NT",karama.school@education.nt.gov.au,(08) 898 37700,Debbie O'Neill,Maria Albion,"130.91438,-12.39838",North
Jilkminggan School,"N/A, Jilkminggan (Duck Creek), NT","PO Box 4054, Mataranka, 0852, NT",admin.jilkmsch@education.nt.gov.au,(08) 8975 4896,Jenny Carroll,Lyndie Watson,"133.30123,-14.95402",North
Kalkaringi School,"Whitlam st, Kalkaringi (Wave hill), NT","PMB 41, KATHERINE, 0852, NT",anne.saunders@education.nt.gov.au,(08) 896 51888,Jordin Oehm,Anne Saunders,"130.83233,-17.44597",North
Jabiru Area School,"40 Waterhouse Rd, Jabiru, NT","PO Box  246, Jabiru, 0886, NT",jabiru.areaschool@education.nt.gov.au,(08) 8938 3333,Sharon Rathley-Kulu,,"132.83534,-12.67577",North
Jingili Primary School,"17 Rindberg St, Jingili, 0810, NT","PO Box 40600, CASUARINA, 0810, NT",jingili.school@education.nt.gov.au,(08) 898 37555,Andrea Thomas,Jemma Rust,"130.87423,-12.38719",North
Larapinta Primary School,"22 Albrecht Dr, Alice Springs, NT","PO Box 9021, ALICE SPRINGS, 0871, NT",larapinta.primary@education.nt.gov.au,(08) 895 85155,Larapinta Finance,Brenda Jolley,"133.833392,-23.696514",Central Australia
Laramba School,"N/A, Laramba (Napperby), NT","PMB 213, via Alice Springs, 0872, NT",laramba.school@education.nt.gov.au,(08) 8956 8771,Lufen Cowham,Michael Ryan,"132.75683,-22.533",Central Australia
Howard Springs Primary School,"295 Whitewood Rd, Howard Springs, 0835, NT","PO Box  171, HOWARD SPRINGS, 0835, NT",howard.springs@education.nt.gov.au,(08) 898 30000,Sue Abrook,Daryll Kinnane,"131.04519,-12.4955",North
Imanpa School,"N/A, Imanpa, NT","PMB 76, via Alice Springs, 0872, NT",kandi.thorpe@education.nt.gov.au,(08) 8956 7483,Rowan Churches,Kandi Thorpe,"132.5731,-25.1291",Central Australia
Sadadeen Primary School,"80 Spearwood Rd, Alice Springs, 0870, NT","PO Box 2707, ALICE SPRINGS, 0871, NT",sadadeen.primary@education.nt.gov.au,(08) 895 52299,Melanie Purdie,Donna Wright,"133.8975,-23.701331",Central Australia
Humpty Doo Primary School,"50 Freds Pass Rd, Humpty Doo, 0836, NT","PO Box 46, HUMPTY DOO, 0836, NT",admin.humptydoo@education.nt.gov.au,(08) 792 30400,,Carrie White,"131.1027,-12.576142",North
Harts Range School,"N/A, Atitjere (Harts Range), NT","PMB 162, via Alice Springs, 0871, NT",rhyl.hall@education.nt.gov.au,(08) 8956 9771,Rhyl Hall,Kylie McKay,"134.933,-22.9844",Central Australia
Henbury School,"11 Henbury Avenue, Tiwi, 0810, NT","11 Henbury Avenue, Tiwi, 0810, NT",henbury.admin@education.nt.gov.au,(08) 899 77077,,Sarah Corry,"130.88352,-12.36919",North
Haasts Bluff School,"N/A, Haasts Bluff (Ikuntji), 0872, NT","Haasts Bluff, via Alice Springs, 0872, NT",geoff.gillman@education.nt.gov.au,(08) 8956 8550,Lufen Cowham,Geoff Gillman,"131.88003,-23.44753",Central Australia
Haileybury Rendall School,"6057 Berrimah Road, Berrimah, NT","PO Box 241, Berrimah, 0828, NT",hrs.admin@hrs.edu.au,(08) 8922 1611,,Andrew McGregor,"130.92232,-12.44235",Darwin
Gunbalanya School,"N/A, Gunbalanya, NT","PMB 66, Gunbalanya, 0822, NT",admin.gunbacec@education.nt.gov.au,(08) 8979 0181,,Esther Djayhgurrnga,"133.05709,-12.32135",North
Good Shepherd Lutheran College,"Cnr Whitewood Rd and Kundook Place, Howard Springs, NT","PO Box 1146, Howard Springs, 0831, NT",admin@goodshepherd.nt.edu.au,08 89830300,,Heather Vogt,"None,None",Darwin
Gray Primary School,"22 Victoria Drive, Gray, 0830, NT","Victoria Drive, GRAY, 0830, NT",admin.graysch@education.nt.gov.au,(08) 8932 1700,Anne Griffiths,Donna Westaway,"130.98015,-12.48961",North 
Gillen Primary School,"55 Milner Rd, Alice Springs, 0870, NT","PO Box 769, ALICE SPRINGS, 0871, NT",gillen.school@education.nt.gov.au,(08) 895 52155,Nadine Branagan,Donna O'Brien,"133.869042,-23.708104",Central Australia
Girraween Primary School,"25 Carruth Rd, Girraween, 0835, NT","PO Box 1042, HOWARD SPRINGS, 0835, NT",admin.girrasch@education.nt.gov.au,(08) 8983 3300,Debra Weir,Megan McKenzie,"131.103,-12.5224",North 
Gapuwiyak School,"N/a, Gapuwiyak, NT","PMB 900, Via Winnellie, 0822, NT",kylie.hendry1@education.nt.gov.au,(08) 8987 9122,Kylie Hendry,,"135.80806,-12.50553",North 
Finke School,"N/A, Finke, NT","PMB 30, via Alice Springs, 0871, NT",finke.school@education.nt.gov.au,(08) 8956 0960,Lufen Cowham,Helen Lopinski,"134.578486,-25.5821",Central Australia
Forrest Parade School,"120 Flynn Circuit, Bellamack, 0832, NT","120 Flynn Circuit, Bellamack, 0832, NT",admin.forrestps@education.nt.gov.au,(08) 899 77111,,,"130.980725,-12.513457",North
Essington School,"22 Chapman Rd, Rapid Creek, NT","PO Box 42321, Casuarina, 0811, NT",administration@essington.nt.edu.au,(08) 8985 0100,,Brian Kennelly,"130.85719,-12.38223",Darwin
Epenarra School,"N/A, Wutunugurra (Epenarra), NT","PMB 270, via Alice Springs, 0861, NT",jennifer.cadzow@education.nt.gov.au,(08) 8964 1512,Julie Marsh,Jennifer Cadzow,"135.24972,-20.46311",Central Australia
Dundee Beach School,"500 Namarada Dr, Dundee Beach, NT","PO Box 145, Dundee Beach, 0840, NT",dundee.school@education.nt.gov.au,(08) 8978 2212,Finance Dundee,Leon Syme,"130.378,-12.7514",North 
Elliott School,"91 Bray St, Elliott, NT","C/- Elliott Post Office, Elliott, 0862, NT",kevin.gaskin@education.nt.gov.au,(08) 8969 2122,Heather Watson,Kevin Gaskin,"133.54,-17.5553",Central Australia
Douglas Daly School,"Jungawa Rd, Douglas-Daly, NT","PMB 46, via Winnellie, 0822, NT",carla.clough@education.nt.gov.au,(08) 8978 2836,Geraldine Hogarth,Carla Clough,"131.188,-13.8323",North 
Driver Primary School,"37 Driver Ave, Driver, 0830, NT","PO Box  33, PALMERSTON, 0831, NT",admin.drivesch@education.nt.gov.au,(08) 893 59000,Wendy Woods,Warwick Peter-Budge,"130.97518,-12.48559",North 
Dripstone Middle School,"10 Delamere St, Tiwi, 0810, NT","PO Box  41370, CASUARINA, 0811, NT",dripstone.middle@education.nt.gov.au,(08) 898 37777,Katerina Laouris,Nektaria Pikoulos,"130.88296,-12.3661",North 
Durack Primary School,"50 Woodlake Bvd, Durack, 0830, NT","PO Box  225, PALMERSTON, 0830, NT",durack.school@education.nt.gov.au,(08) 899 77555,Cathy Kerr,Cindy McLaren,"130.97409,-12.47586",North 
Darwin Middle School,"Atkins Drive, The Gardens, NT 0820, not available, NT","PO Box 2257, PARAP, 0804, NT",admin.darwinmiddle@education.nt.gov.au,(08) 894 25200,Christine  Dossantos,,"130.836,-12.4384",North 
Darwin Languages Centre,"1 Nemarluk Dr, Ludmilla, NT, NT","P O Box 822, Nightcliff, 0814, NT",dlc.nt@education.nt.gov.au,(08) 899 77000,Lindsey Barraclough,Kevin Northcote,"130.8536697,-12.4223633",North
Casuarina Senior College,"61 Parer Dr, Moil, 0810, NT","PO Box  40196, CASUARINA, 0811, NT",csc.admin@education.nt.gov.au,(08) 898 37300,,Glenn Dixon,"130.87897,-12.38361",North 
Clyde Fenton Primary School,"101 Giles St, Katherine, 0850, NT","PO Box 421, KATHERINE, 0851, NT",admin.clydesch@education.nt.gov.au,(08) 897 33844,Kelly Angel,Jeff Parker,"132.27042,-14.4512",North 
Casuarina Street Primary School,"Casuarina St, Katherine East, 0850, NT","PO Box 1046, KATHERINE, 0851, NT",casuarina.admin@education.nt.gov.au,(08) 897 33800,Jodie Fisher,Renez Lammon,"132.29644,-14.466",North 
Darwin High School,"10 Atkins Dr, The Gardens, 0820, NT","Bullocky Point, DARWIN, 0820, NT",darwin.high@education.nt.gov.au,(08) 899 91222,,Jill Hazeldine,"130.83398,-12.43893",North 
Centralian Middle School,"56 Milner Rd, Alice Springs, 0870, NT","PO Box 1771, ALICE SPRINGS, 0871, NT",centralian.middle@education.nt.gov.au,(08) 895 52333,Brenda Savage,Cassie O'Bree,"133.8664,-23.709",Central Australia
Canteen Creek School,"N/a, Canteen Creek, NT","PMB 105, via Alice Springs, 0872, NT",admin.cantesch@education.nt.gov.au,(08) 8964 1505,,Edwin Currall,"135.584506,-20.644769",Central Australia
Callistemon House,"80 Callistemon Dr, Katherine East, 0850, NT","PO Box 1971, Katherine East, 0851, NT",admin.callistemon@education.nt.gov.au,(08) 8972 3212,Jenny Carroll,Shannon Dohl,"132.2853853,-14.4615068",North
Bulla Camp School,"N/A, Bulla, NT","PMB 89, Katherine, 0851, NT",jenine.williams@education.nt.gov.au,(08) 9167 8957,Keely Wallace,Jenine Williams,"130.04,-15.7691",North
Bradshaw Primary School,"23 Adamson Ave, Alice Springs, 0870, NT","PO Box 1744, ALICE SPRINGS, 0871, NT",bradshaw.school@education.nt.gov.au,(08) 895 52100,Melanie Shaw,Michele Turk,"133.8595,-23.7085",Central Australia
Bulman School,"N/A, Bulman, NT","PMB 13, Katherine, 0851, NT",irene.singleton@education.nt.gov.au,(08) 8975 4707,Suzi White,Irene Singleton,"134.33036,-13.66483",North
Bonya School,"Community ID 26, Orrtipa-Thurra (Bonya), NT","PMB 69, via Alice Springs, 0872, NT",billie.coupland@education.nt.gov.au,(08) 8956 6352,Rhyl Hall,Billie Coupland,"136.16675,-22.77886",Central Australia
Borroloola School,"321 Robinson Rd, Borroloola, 0854, NT","PMB 5, Borroloola, 0854, NT",admin.borrosch@education.nt.gov.au,(08) 896 51800,Annette Bradford,Jane Arnott,"136.30649,-16.0582",North 
Berry Springs Primary School,"1150 Cox Peninsula Rd, Berry Springs, 0838, NT","PO Box 135, Berry Springs, 0838, NT",berrysprings.primary@education.nt.gov.au,(08) 8988 6006,Wendy Alp,Sue Trimble,"130.98749,-12.7159",North 
Centralian Senior College,"10 Grevillea Drive, Alice Springs, 0870, NT","PO Box 4856, ALICE SPRINGS, 0871, NT",admin.centraliansc@education.nt.gov.au,(08) 895 85000,,Joanne Alford,"133.8953,-23.6979",Central Australia
Belyuen School,"N/A, Belyuen, NT","PMB 2, GPO Darwin, 0801, NT",elspeth.hurse@education.nt.gov.au,(08) 8978 5085,Carmel Pedersen,Elspeth Hurse,"130.701214,-12.5393",North
Alice Springs School Of The Air,"80 Head St, Alice Springs, 0870, NT","PO Box 1220, Alice Springs, 0871, NT",assoa@assoa.nt.edu.au,(08) 8951 6800,Lana Bezuidenhout,Kerrie Russell,"133.86618,-23.67805",Central Australia
Alice Springs Language Centre,"Milner Road, Alice SPrings, 0870, NT","PO Box 9045, Alice Springs, 0871, NT",alice.language@education.nt.gov.au,(08) 895 52366,Carol Watson,Susan Moore,"133.8669804543902,-23.70818046115718",Central Australia
Bees Creek Primary School,"20 Sattler Cres, Freds Pass, NT","PO Box 1500, Coolalinga, 0839, NT",bees.creek@education.nt.gov.au,(08) 8983 3222,Rachel Webster,Wendy Jordan,"131.0528,-12.5408",North 
Alice Springs Steiner School,"Lot 9523 Ragonesi Rd, Alice Springs, 0870, NT","PO Box 2736, Alice Springs, 0871, NT",accounts@alicesteiner.nt.edu.au,(08) 8953 4578,,Dina Fiek,"133.881575,-23.743824",not available
Alekarenge School,"N/A, Ali Curung (Warrabri), NT","LMB 161, via Alice Springs, 0872, NT",admin.alekacec@education.nt.gov.au,(08) 8964 1957,Julie Marsh,Michelle Leonard,"134.405661,-21.003806",Central Australia
Braitling Primary School,"80 Head St, Alice Springs, 0870, NT","PO Box  1669, ALICE SPRINGS, 0871, NT",admin.braitsch@education.nt.gov.au,(08) 895 85111,Sarah Robertson,Belinda Pearson,"133.86684,-23.67838",Central Australia
Adelaide River School,"31 Memorial Tce, Adelaide River, 0846, NT","C/- Post Office, Adelaide River, 0846, NT",adelaideriver.ps@education.nt.gov.au,(08) 8976 7034,Tricia Forscutt,Tony Clegg,"131.10926,-13.2371",North
Acacia Hill School,"80 Spearwood Rd, Alice Springs, 0870, NT","PO Box 435, ALICE SPRINGS, 0871, NT",acaciahill.school@education.nt.gov.au,(08) 895 52222,Janet Dales,Julie Permezel,"133.898,-23.7007",Central Australia
Alcoota School,"N/A, Engawala (Alcoota Stn), NT","PMB 129,, via Alice Springs, 0872, NT",sian.munn@education.nt.gov.au,(08) 8956 9977,Rhyl Hall,Sian Munn,"134.45452,-22.80235",Central Australia
Alawa Primary School,"27 Pett Street, Alawa, 0810, NT","PO Box 40446, Casuarina, 0811, NT",alawa.school@education.nt.gov.au,(08) 899 77666,Jetske Hines,Sandy Cartwright,"130.87754,-12.38022",North 
